CCSDS_OMM_VERS = 2.0
CREATION_DATE  = 
ORIGINATOR     = 

OBJECT_NAME    = INTERCOSMOS 25
OBJECT_ID      = 1991-086A
CENTER_NAME    = EARTH
REF_FRAME      = TEME
TIME_SYSTEM    = UTC
MEAN_ELEMENT_THEORY = SGP/SGP4

EPOCH          = 2026-02-09T20:01:27.166080
MEAN_MOTION    = 12.11921745
ECCENTRICITY   = .14867987
INCLINATION    = 82.6085
RA_OF_ASC_NODE = 326.8406
ARG_OF_PERICENTER = 176.9407
MEAN_ANOMALY   = 184.2164

EPHEMERIS_TYPE = 0
CLASSIFICATION_TYPE = U
NORAD_CAT_ID   = 21819
ELEMENT_SET_NO = 999
REV_AT_EPOCH   = 49331
BSTAR          = .2851499E-3
MEAN_MOTION_DOT = .1469E-4
MEAN_MOTION_DDOT = 0

CCSDS_OMM_VERS = 2.0
CREATION_DATE  = 
ORIGINATOR     = 

OBJECT_NAME    = SL-8 R/B
OBJECT_ID      = 1992-008B
CENTER_NAME    = EARTH
REF_FRAME      = TEME
TIME_SYSTEM    = UTC
MEAN_ELEMENT_THEORY = SGP/SGP4

EPOCH          = 2026-02-09T19:11:27.908448
MEAN_MOTION    = 13.75969676
ECCENTRICITY   = .00338823
INCLINATION    = 82.9261
RA_OF_ASC_NODE = 288.5268
ARG_OF_PERICENTER = 210.8832
MEAN_ANOMALY   = 215.9609

EPHEMERIS_TYPE = 0
CLASSIFICATION_TYPE = U
NORAD_CAT_ID   = 21876
ELEMENT_SET_NO = 999
REV_AT_EPOCH   = 70558
BSTAR          = .18863834E-4
MEAN_MOTION_DOT = .33E-6
MEAN_MOTION_DDOT = 0

CCSDS_OMM_VERS = 2.0
CREATION_DATE  = 
ORIGINATOR     = 

OBJECT_NAME    = SL-8 R/B
OBJECT_ID      = 1992-020B
CENTER_NAME    = EARTH
REF_FRAME      = TEME
TIME_SYSTEM    = UTC
MEAN_ELEMENT_THEORY = SGP/SGP4

EPOCH          = 2026-02-09T20:14:01.464864
MEAN_MOTION    = 13.75545470
ECCENTRICITY   = .0029237
INCLINATION    = 82.9332
RA_OF_ASC_NODE = 174.4303
ARG_OF_PERICENTER = 18.1406
MEAN_ANOMALY   = 92.5423

EPHEMERIS_TYPE = 0
CLASSIFICATION_TYPE = U
NORAD_CAT_ID   = 21938
ELEMENT_SET_NO = 999
REV_AT_EPOCH   = 69730
BSTAR          = .12904572E-3
MEAN_MOTION_DOT = .14E-5
MEAN_MOTION_DDOT = 0

CCSDS_OMM_VERS = 2.0
CREATION_DATE  = 
ORIGINATOR     = 

OBJECT_NAME    = USA 81
OBJECT_ID      = 1992-023A
CENTER_NAME    = EARTH
REF_FRAME      = TEME
TIME_SYSTEM    = UTC
MEAN_ELEMENT_THEORY = SGP/SGP4

EPOCH          = 2026-02-09T18:51:04.792896
MEAN_MOTION    = 14.32357730
ECCENTRICITY   = .00026429
INCLINATION    = 85.0120
RA_OF_ASC_NODE = 147.5310
ARG_OF_PERICENTER = 102.6528
MEAN_ANOMALY   = 257.4960

EPHEMERIS_TYPE = 0
CLASSIFICATION_TYPE = U
NORAD_CAT_ID   = 21949
ELEMENT_SET_NO = 999
REV_AT_EPOCH   = 9079
BSTAR          = .83030597E-4
MEAN_MOTION_DOT = .244E-5
MEAN_MOTION_DDOT = 0

CCSDS_OMM_VERS = 2.0
CREATION_DATE  = 
ORIGINATOR     = 

OBJECT_NAME    = COSMOS 2219
OBJECT_ID      = 1992-076A
CENTER_NAME    = EARTH
REF_FRAME      = TEME
TIME_SYSTEM    = UTC
MEAN_ELEMENT_THEORY = SGP/SGP4

EPOCH          = 2026-02-09T12:12:19.990944
MEAN_MOTION    = 14.14076488
ECCENTRICITY   = .00202911
INCLINATION    = 71.0582
RA_OF_ASC_NODE = 76.9836
ARG_OF_PERICENTER = 245.6996
MEAN_ANOMALY   = 114.2008

EPHEMERIS_TYPE = 0
CLASSIFICATION_TYPE = U
NORAD_CAT_ID   = 22219
ELEMENT_SET_NO = 999
REV_AT_EPOCH   = 71439
BSTAR          = -.14906011E-4
MEAN_MOTION_DOT = -.76E-6
MEAN_MOTION_DDOT = 0

CCSDS_OMM_VERS = 2.0
CREATION_DATE  = 
ORIGINATOR     = 

OBJECT_NAME    = SL-16 R/B
OBJECT_ID      = 1992-076B
CENTER_NAME    = EARTH
REF_FRAME      = TEME
TIME_SYSTEM    = UTC
MEAN_ELEMENT_THEORY = SGP/SGP4

EPOCH          = 2026-02-09T23:00:41.842368
MEAN_MOTION    = 14.16855960
ECCENTRICITY   = .00114387
INCLINATION    = 70.9978
RA_OF_ASC_NODE = 246.7888
ARG_OF_PERICENTER = 146.0607
MEAN_ANOMALY   = 315.7770

EPHEMERIS_TYPE = 0
CLASSIFICATION_TYPE = U
NORAD_CAT_ID   = 22220
ELEMENT_SET_NO = 999
REV_AT_EPOCH   = 71790
BSTAR          = .203749E-4
MEAN_MOTION_DOT = -.7E-7
MEAN_MOTION_DDOT = 0

CCSDS_OMM_VERS = 2.0
CREATION_DATE  = 
ORIGINATOR     = 

OBJECT_NAME    = COSMOS 2221
OBJECT_ID      = 1992-080A
CENTER_NAME    = EARTH
REF_FRAME      = TEME
TIME_SYSTEM    = UTC
MEAN_ELEMENT_THEORY = SGP/SGP4

EPOCH          = 2026-02-09T19:33:49.772160
MEAN_MOTION    = 14.96090178
ECCENTRICITY   = .00128845
INCLINATION    = 82.5054
RA_OF_ASC_NODE = 305.7772
ARG_OF_PERICENTER = 289.5142
MEAN_ANOMALY   = 70.4687

EPHEMERIS_TYPE = 0
CLASSIFICATION_TYPE = U
NORAD_CAT_ID   = 22236
ELEMENT_SET_NO = 999
REV_AT_EPOCH   = 77662
BSTAR          = .2122414E-3
MEAN_MOTION_DOT = .2414E-4
MEAN_MOTION_DDOT = 0

CCSDS_OMM_VERS = 2.0
CREATION_DATE  = 
ORIGINATOR     = 

OBJECT_NAME    = SL-16 R/B
OBJECT_ID      = 1992-093B
CENTER_NAME    = EARTH
REF_FRAME      = TEME
TIME_SYSTEM    = UTC
MEAN_ELEMENT_THEORY = SGP/SGP4

EPOCH          = 2026-02-09T11:18:50.282784
MEAN_MOTION    = 14.15441002
ECCENTRICITY   = .00051629
INCLINATION    = 71.0200
RA_OF_ASC_NODE = 63.5052
ARG_OF_PERICENTER = 323.4452
MEAN_ANOMALY   = 36.6318

EPHEMERIS_TYPE = 0
CLASSIFICATION_TYPE = U
NORAD_CAT_ID   = 22285
ELEMENT_SET_NO = 999
REV_AT_EPOCH   = 70916
BSTAR          = .4095202E-5
MEAN_MOTION_DOT = -.4E-6
MEAN_MOTION_DDOT = 0

CCSDS_OMM_VERS = 2.0
CREATION_DATE  = 
ORIGINATOR     = 

OBJECT_NAME    = COSMOS 2228
OBJECT_ID      = 1992-094A
CENTER_NAME    = EARTH
REF_FRAME      = TEME
TIME_SYSTEM    = UTC
MEAN_ELEMENT_THEORY = SGP/SGP4

EPOCH          = 2026-02-09T21:59:52.747872
MEAN_MOTION    = 14.97061828
ECCENTRICITY   = .00189851
INCLINATION    = 82.5157
RA_OF_ASC_NODE = 263.9058
ARG_OF_PERICENTER = 39.1297
MEAN_ANOMALY   = 321.1294

EPHEMERIS_TYPE = 0
CLASSIFICATION_TYPE = U
NORAD_CAT_ID   = 22286
ELEMENT_SET_NO = 999
REV_AT_EPOCH   = 77190
BSTAR          = .15385817E-3
MEAN_MOTION_DOT = .1805E-4
MEAN_MOTION_DDOT = 0

CCSDS_OMM_VERS = 2.0
CREATION_DATE  = 
ORIGINATOR     = 

OBJECT_NAME    = SL-16 R/B
OBJECT_ID      = 1993-016B
CENTER_NAME    = EARTH
REF_FRAME      = TEME
TIME_SYSTEM    = UTC
MEAN_ELEMENT_THEORY = SGP/SGP4

EPOCH          = 2026-02-09T22:23:36.777984
MEAN_MOTION    = 14.15303421
ECCENTRICITY   = .00103627
INCLINATION    = 71.0064
RA_OF_ASC_NODE = 273.4820
ARG_OF_PERICENTER = 351.8265
MEAN_ANOMALY   = 8.2688

EPHEMERIS_TYPE = 0
CLASSIFICATION_TYPE = U
NORAD_CAT_ID   = 22566
ELEMENT_SET_NO = 999
REV_AT_EPOCH   = 69824
BSTAR          = -.7378447E-4
MEAN_MOTION_DOT = -.191E-5
MEAN_MOTION_DDOT = 0

CCSDS_OMM_VERS = 2.0
CREATION_DATE  = 
ORIGINATOR     = 

OBJECT_NAME    = COSMOS 2242
OBJECT_ID      = 1993-024A
CENTER_NAME    = EARTH
REF_FRAME      = TEME
TIME_SYSTEM    = UTC
MEAN_ELEMENT_THEORY = SGP/SGP4

EPOCH          = 2026-02-09T18:04:46.654464
MEAN_MOTION    = 14.96432385
ECCENTRICITY   = .00175673
INCLINATION    = 82.5190
RA_OF_ASC_NODE = 293.4368
ARG_OF_PERICENTER = 43.2087
MEAN_ANOMALY   = 317.0510

EPHEMERIS_TYPE = 0
CLASSIFICATION_TYPE = U
NORAD_CAT_ID   = 22626
ELEMENT_SET_NO = 999
REV_AT_EPOCH   = 77621
BSTAR          = .18018447E-3
MEAN_MOTION_DOT = .2075E-4
MEAN_MOTION_DDOT = 0

CCSDS_OMM_VERS = 2.0
CREATION_DATE  = 
ORIGINATOR     = 

OBJECT_NAME    = SL-16 R/B
OBJECT_ID      = 1993-059B
CENTER_NAME    = EARTH
REF_FRAME      = TEME
TIME_SYSTEM    = UTC
MEAN_ELEMENT_THEORY = SGP/SGP4

EPOCH          = 2026-02-09T12:38:26.841984
MEAN_MOTION    = 14.17227876
ECCENTRICITY   = .0019491
INCLINATION    = 70.9892
RA_OF_ASC_NODE = 70.5189
ARG_OF_PERICENTER = 255.2353
MEAN_ANOMALY   = 104.6611

EPHEMERIS_TYPE = 0
CLASSIFICATION_TYPE = U
NORAD_CAT_ID   = 22803
ELEMENT_SET_NO = 999
REV_AT_EPOCH   = 67554
BSTAR          = .68763E-4
MEAN_MOTION_DOT = .91E-6
MEAN_MOTION_DDOT = 0

CCSDS_OMM_VERS = 2.0
CREATION_DATE  = 
ORIGINATOR     = 

OBJECT_NAME    = ARIANE 40 R/B
OBJECT_ID      = 1993-061H
CENTER_NAME    = EARTH
REF_FRAME      = TEME
TIME_SYSTEM    = UTC
MEAN_ELEMENT_THEORY = SGP/SGP4

EPOCH          = 2026-02-09T18:23:23.240544
MEAN_MOTION    = 14.32846030
ECCENTRICITY   = .00107663
INCLINATION    = 98.4976
RA_OF_ASC_NODE = 110.1966
ARG_OF_PERICENTER = 13.2049
MEAN_ANOMALY   = 346.9415

EPHEMERIS_TYPE = 0
CLASSIFICATION_TYPE = U
NORAD_CAT_ID   = 22830
ELEMENT_SET_NO = 999
REV_AT_EPOCH   = 69010
BSTAR          = .95206519E-4
MEAN_MOTION_DOT = .217E-5
MEAN_MOTION_DDOT = 0

CCSDS_OMM_VERS = 2.0
CREATION_DATE  = 
ORIGINATOR     = 

OBJECT_NAME    = COSMOS 2278
OBJECT_ID      = 1994-023A
CENTER_NAME    = EARTH
REF_FRAME      = TEME
TIME_SYSTEM    = UTC
MEAN_ELEMENT_THEORY = SGP/SGP4

EPOCH          = 2026-02-09T22:40:13.802880
MEAN_MOTION    = 14.14363441
ECCENTRICITY   = .0006682
INCLINATION    = 71.0500
RA_OF_ASC_NODE = 233.1445
ARG_OF_PERICENTER = 66.1712
MEAN_ANOMALY   = 294.0110

EPHEMERIS_TYPE = 0
CLASSIFICATION_TYPE = U
NORAD_CAT_ID   = 23087
ELEMENT_SET_NO = 999
REV_AT_EPOCH   = 64088
BSTAR          = -.29918324E-4
MEAN_MOTION_DOT = -.104E-5
MEAN_MOTION_DDOT = 0

CCSDS_OMM_VERS = 2.0
CREATION_DATE  = 
ORIGINATOR     = 

OBJECT_NAME    = SL-16 R/B
OBJECT_ID      = 1994-023B
CENTER_NAME    = EARTH
REF_FRAME      = TEME
TIME_SYSTEM    = UTC
MEAN_ELEMENT_THEORY = SGP/SGP4

EPOCH          = 2026-02-09T15:36:17.976384
MEAN_MOTION    = 14.15003743
ECCENTRICITY   = .00044774
INCLINATION    = 70.9997
RA_OF_ASC_NODE = 129.7753
ARG_OF_PERICENTER = 311.7693
MEAN_ANOMALY   = 48.3046

EPHEMERIS_TYPE = 0
CLASSIFICATION_TYPE = U
NORAD_CAT_ID   = 23088
ELEMENT_SET_NO = 999
REV_AT_EPOCH   = 64212
BSTAR          = .69092056E-4
MEAN_MOTION_DOT = .86E-6
MEAN_MOTION_DDOT = 0

